BEIJING 1               
1 28890U 05043A   22046.80753226  .00000133  00000+0  36260-4 0  9993
2 28890  98.0996 171.5905 0015097 190.2535 169.8357 14.61385362869376
SINAH 1                 
1 28893U 05043D   22046.88285677  .00000154  00000+0  40219-4 0  9996
2 28893  98.0937 172.9135 0015002 189.2585 170.8342 14.61627267869192
CUBESAT XI-V            
1 28895U 05043F   22046.87928099  .00000602  00000+0  12353-3 0  9994
2 28895  98.0864 180.2965 0017218 160.2782 199.9090 14.64096227869624
INMARSAT 4-F2           
1 28899U 05044A   22046.88428660  .00000013  00000+0  00000+0 0  9997
2 28899   3.4095  36.2168 0002985 293.4711 198.3909  1.00271675 59659
SPACEWAY 2              
1 28903U 05046B   22046.70027876  .00000105  00000+0  00000+0 0  9992
2 28903   1.6246  89.1794 0000165 106.5996  63.0746  1.00271643 35478
COSMOS 2416             
1 28908U 05048A   22046.89931625  .00000040  00000+0  18356-3 0  9990
2 28908  82.4647 239.4010 0008279 101.9954  23.8348 12.55515422740331
METEOSAT-9 (MSG-2)      
1 28912U 05049B   22046.80177817  .00000087  00000+0  00000+0 0  9996
2 28912   5.7469  67.0663 0001358 230.8561 146.8248  1.00411887 59170
EUTELSAT 174A           
1 28924U 05052A   22046.84146491  .00000012  00000+0  00000+0 0  9999
2 28924   0.2060  90.4077 0006328 238.7828 293.5299  1.00273343 36460
ECHOSTAR 10             
1 28935U 06003A   22046.41800316 -.00000053  00000+0  00000+0 0  9990
2 28935   0.0666 285.0958 0001410  63.4376 197.1240  1.00272950 58608
SPAINSAT                
1 28945U 06007A   22046.67860122 -.00000215  00000+0  00000+0 0  9994
2 28945   0.0675 265.3604 0004170  32.6754  61.8964  1.00269938 58345
EUTELSAT HOTBIRD 13E    
1 28946U 06007B   22046.80230148  .00000089  00000+0  00000+0 0  9997
2 28946   0.0692 235.6970 0003568  71.6108 140.2497  1.00272154 58434
JCSAT-5A                
1 29045U 06010A   22046.75426683 -.00000326  00000+0  00000+0 0  9992
2 29045   0.0127 147.9608 0001725 205.4294 195.9082  1.00271069 57897
ASTRA 1KR               
1 29055U 06012A   22046.30117584  .00000122  00000+0  00000+0 0  9996
2 29055   0.0946 275.7086 0004195   5.2797 351.8938  1.00271248 29852
EROS B                  
1 29079U 06014A   22046.89928492  .00013121  00000+0  51610-3 0  9996
2 29079  97.4235 169.7164 0006848 347.6013 161.1645 15.25758722877878
CLOUDSAT                
1 29107U 06016A   22046.85840442  .00000159  00000+0  40686-4 0  9993
2 29107  98.3131   5.9993 0002564 349.0485  11.0660 14.62788975841252
CALIPSO                 
1 29108U 06016B   22046.85223021  .00000504  00000+0  10849-3 0  9993
2 29108  98.3099   5.6161 0001364  81.8225 278.3131 14.62719282841245
EWS-G1 (GOES 13)        
1 29155U 06018A   22046.84980764  .00000038  00000+0  00000+0 0  9996
2 29155   0.4804  98.6672 0004177 161.7927 252.8315  1.00269160 27516
EUTELSAT 113 WEST A     
1 29162U 06020A   22046.62323089 -.00000035  00000+0  00000+0 0  9992
2 29162   0.0261 269.7214 0002937  63.9232 283.2834  1.00271361 57607
RESURS-DK 1             
1 29228U 06021A   22046.49964020  .00000724  00000+0  61087-4 0  9998
2 29228  69.9346  79.7385 0007727 258.1103 101.9191 15.02922437864054
GALAXY 16 (G-16)        
1 29236U 06023A   22046.85166699 -.00000125  00000+0  00000+0 0  9994
2 29236   0.0283 125.1347 0002917 208.5852  19.6916  1.00269663 57107
GENESIS 1               
1 29252U 06029A   22046.88549672  .00002680  00000+0  12959-3 0  9994
2 29252  64.5226 109.9718 0059900 280.1066  79.3303 15.19550910860496
ARIRANG-2 (KOMPSAT-2)   
1 29268U 06031A   22046.76803091  .00000327  00000+0  73778-4 0  9992
2 29268  97.9077 281.1168 0017568  38.8351 321.4112 14.62196504830115
EUTELSAT HOTBIRD 13B    
1 29270U 06032A   22046.80230148  .00000088  00000+0  00000+0 0  9995
2 29270   0.0760 335.8305 0005867 356.1841 115.5544  1.00271673 31440
JCSAT-3A                
1 29272U 06033A   22046.82528841 -.00000344  00000+0  00000+0 0  9996
2 29272   0.0244 223.7903 0002175  99.4097 247.6765  1.00269666 31875
SYRACUSE 3B             
1 29273U 06033B   22046.87041889 -.00000042  00000+0  00000+0 0  9999
2 29273   0.0179 124.8351 0003527 205.9323 123.2011  1.00272036 56830
KOREASAT 5 (MUGUNGWHA 5)
1 29349U 06034A   22046.82227444 -.00000356  00000+0  00000+0 0  9990
2 29349   0.0272 220.8028 0001554  80.8101 253.2350  1.00269839 56767
HINODE (SOLAR-B)        
1 29479U 06041A   22046.91511020  .00000258  00000+0  57469-4 0  9994
2 29479  98.1280  63.5870 0017386 247.1489 112.7878 14.64689887822962
NAVSTAR 58 (USA 190)    
1 29486U 06042A   22046.80430562  .00000051  00000+0  00000+0 0  9997
2 29486  54.7327 214.1099 0103858  20.3851 214.2772  2.00561456112658
DIRECTV 9S              
1 29494U 06043A   22046.63337455 -.00000111  00000+0  00000+0 0  9993
2 29494   0.0225 133.9524 0003161 191.8638 306.5817  1.00272663 35514
OPTUS D1                
1 29495U 06043B   22046.87271505 -.00000110  00000+0  00000+0 0  9992
2 29495   0.0650 283.8927 0003550  47.4135 288.6848  1.00270276 56255
SHIJIAN-6 02A (SJ-6 02A)
1 29505U 06046A   22046.87779760  .00002291  00000+0  21184-3 0  9994
2 29505  97.7879  68.6790 0005243 149.4431 210.7121 14.95549864834527
SHIJIAN-6 02B (SJ-6 02B)
1 29506U 06046B   22046.84152483  .00000048  00000+0  99175-5 0  9994
2 29506  97.8074  68.8486 0000572 243.7186 116.3947 14.93749850833986
XM-4 (BLUES)            
1 29520U 06049A   22046.66589220 -.00000020  00000+0  00000+0 0  9990
2 29520   0.0643 292.8598 0002100  19.8168 317.4368  1.00269099 35604
DMSP 5D-3 F17 (USA 191) 
1 29522U 06050A   22046.87153987  .00000072  00000+0  60754-4 0  9997
2 29522  98.7742  64.1609 0008918 244.0776 115.9478 14.14071691788722
BADR-4                  
1 29526U 06051A   22046.87669861  .00000146  00000+0  00000+0 0  9990
2 29526   0.0652 313.0314 0006252  13.7389 160.6659  1.00276589 35403
NAVSTAR 59 (USA 192)    
1 29601U 06052A   22046.42725447  .00000042  00000+0  00000+0 0  9994
2 29601  55.5988 276.8387 0084599  70.9879 290.0024  2.00572066111666
WILDBLUE-1              
1 29643U 06054A   22046.62550097 -.00000047  00000+0  00000+0 0  9997
2 29643   0.0128 107.6145 0001910 215.5911 296.3671  1.00271389 55674
AMC-18                  
1 29644U 06054B   22046.85498127 -.00000214  00000+0  00000+0 0  9994
2 29644   0.0599 287.8522 0002633  41.8907  40.8588  1.00272044 55684
LAPAN-TUBSAT            
1 29709U 07001A   22046.85697086  .00000336  00000+0  48727-4 0  9991
2 29709  97.9490  10.1415 0011545 295.3272  64.6759 14.82372047816498
CARTOSAT-2 (IRS-P7)     
1 29710U 07001B   22046.79346319  .00012378  00000+0  33665-3 0  9999
2 29710  97.8639 145.7300 0164447 122.4849 239.2404 15.25097770817675
THEMIS A                
1 30580U 07004A   22046.55600277 -.00000600  00000+0 -64799-2 0  9997
2 30580  15.4880 356.4507 8389713 142.3323 326.6396  0.87833591 27368
OE (NEXTSAT)            
1 30774U 07006C   22046.80727905  .00011842  00000+0  21772-3 0  9993
2 30774  46.0005 325.4038 0004647 102.4747 257.6680 15.49403779834962
FALCONSAT-3             
1 30776U 07006E   22046.90889326  .00016593  00000+0  33664-3 0  9993
2 30776  35.4344 331.3699 0003898 302.3397  57.6955 15.45492698830727
CFESAT                  
1 30777U 07006F   22046.58613605  .00023763  00000+0  47806-3 0  9993
2 30777  35.4240  12.6904 0004728 301.5815  58.4453 15.45670534830246
INSAT-4B                
1 30793U 07007A   22046.86631964 -.00000239  00000+0  00000+0 0  9996
2 30793   2.0073  93.2477 0010292 116.8933 221.9075  0.99080026 26337
SKYNET 5A               
1 30794U 07007B   22046.89047909 -.00000271  00000+0  00000+0 0  9996
2 30794   1.9726  88.9238 0003262 236.8856 235.8009  1.00273552 54831
THEMIS D                
1 30797U 07004D   22046.64704524 -.00000571  00000+0  00000+0 0  9995
2 30797  11.7067 345.9616 8360271 155.5333   4.7830  0.87836542 27167
THEMIS E                
1 30798U 07004E   22045.54116025 -.00000633  00000+0  00000+0 0  9996
2 30798  12.1323 358.0852 8345210 145.7587   2.7702  0.87839941 51993
ANIK F3                 
1 31102U 07009A   22046.63857924  .00000001  00000+0  00000+0 0  9990
2 31102   0.0285 118.5783 0002561 219.0544 279.1628  1.00269555 30692
HAIYANG-1B              
1 31113U 07010A   22046.82887280  .00000033  00000+0  28623-4 0  9994
2 31113  98.3327  77.1310 0013306 208.5943 151.4512 14.30293323774384
SAUDISAT 3              
1 31118U 07012B   22046.81408381  .00000102  00000+0  25376-4 0  9990
2 31118  97.9548 356.9107 0014204 219.4352 140.5821 14.69257219795240
SAUDICOMSAT 7           
1 31119U 07012C   22046.80589664  .00000254  00000+0  59001-4 0  9994
2 31119  98.1710 353.9156 0061112 111.3254 249.4485 14.61960677790934
SAUDICOMSAT 6           
1 31121U 07012E   22046.82995510  .00000202  00000+0  52001-4 0  9996
2 31121  98.2144 349.2255 0075694 210.2644 149.4174 14.58755041789215
SAUDICOMSAT 5           
1 31124U 07012H   22046.81023377  .00000329  00000+0  71251-4 0  9999
2 31124  98.1391 355.6539 0052665  60.4567 300.1871 14.63675179791794
SAUDICOMSAT 3           
1 31125U 07012J   22046.81389062  .00000416  00000+0  84851-4 0  9993
2 31125  98.1041 357.3339 0043415   9.6295 350.5730 14.65473782792691
SAUDICOMSAT 4           
1 31127U 07012L   22046.82354111  .00000207  00000+0  51325-4 0  9991
2 31127  98.1946 352.2367 0068302 157.7577 202.6611 14.60474167790126
AGILE                   
1 31135U 07013A   22046.78577898  .00007405  00000+0  17389-3 0  9993
2 31135   2.4678 109.5948 0010888 336.8371  23.1192 15.35407650458207
AIM                     
1 31304U 07015A   22046.73623697  .00004036  00000+0  21538-3 0  9995
2 31304  97.8596 321.5857 0006735  77.8848 282.3138 15.15738461812741
ASTRA 1L                
1 31306U 07016A   22046.30117584  .00000122  00000+0  00000+0 0  9993
2 31306   0.1046 291.7843 0005268  14.9962 326.1009  1.00271732 29142
